[{"OBJECT_NAME":"STARLINK-31814","OBJECT_ID":"2024-093W","EPOCH":"2026-03-09T10:46:34.818240","MEAN_MOTION":15.27567041,"ECCENTRICITY":0.00017412,"INCLINATION":43.0057,"RA_OF_ASC_NODE":210.6688,"ARG_OF_PERICENTER":271.9485,"MEAN_ANOMALY":88.1168,"EPHEMERIS_TYPE":0,"CLASSIFICATION_TYPE":"U","NORAD_CAT_ID":59802,"ELEMENT_SET_NO":999,"REV_AT_EPOCH":10265,"BSTAR":-0.00011881057,"MEAN_MOTION_DOT":-3.529e-5,"MEAN_MOTION_DDOT":0},{"OBJECT_NAME":"FENGYUN 1C DEB","OBJECT_ID":"1999-025BCE","EPOCH":"2026-03-09T20:27:54.391104","MEAN_MOTION":15.38307136,"ECCENTRICITY":0.00917966,"INCLINATION":98.5506,"RA_OF_ASC_NODE":34.4945,"ARG_OF_PERICENTER":39.9911,"MEAN_ANOMALY":320.8043,"EPHEMERIS_TYPE":0,"CLASSIFICATION_TYPE":"U","NORAD_CAT_ID":30988,"ELEMENT_SET_NO":999,"REV_AT_EPOCH":875,"BSTAR":0.0023570074,"MEAN_MOTION_DOT":0.00103953,"MEAN_MOTION_DDOT":0}]
